[
    {
        "Altitude(m)": 707248.1851485783,
        "Argument of Periapsis(deg)": 0.007973084830638947,
        "Eccentricity": 0.0,
        "Inclination(deg)": 45.0,
        "Latitude(deg)": -17.29599699168103,
        "Longitude(deg)": -168.57462992575037,
        "Mean Anomaly(deg)": -24.65404834676343,
        "RAAN(deg)": 309.99247364097926,
        "Satellite Name": "Constellation 1 1384",
        "Satellite Number": 1384,
        "Semi-Major Axis(m)": 7083131.272910544,
        "Time(s)": 133
    },
    {
        "Altitude(m)": 707235.7102678365,
        "Argument of Periapsis(deg)": 0.008033032836884352,
        "Eccentricity": 0.0,
        "Inclination(deg)": 45.0,
        "Latitude(deg)": -17.254971722901818,
        "Longitude(deg)": -168.53180475452103,
        "Mean Anomaly(deg)": -24.59334720651359,
        "RAAN(deg)": 309.9924170518137,
        "Satellite Name": "Constellation 1 1384",
        "Satellite Number": 1384,
        "Semi-Major Axis(m)": 7083131.272910544,
        "Time(s)": 134
    },
    {
        "Altitude(m)": 707223.2462981378,
        "Argument of Periapsis(deg)": 0.008092980843129758,
        "Eccentricity": 0.0,
        "Inclination(deg)": 45.0,
        "Latitude(deg)": -17.213935242338312,
        "Longitude(deg)": -168.48900020820778,
        "Mean Anomaly(deg)": -24.532646066263656,
        "RAAN(deg)": 309.99236046264815,
        "Satellite Name": "Constellation 1 1384",
        "Satellite Number": 1384,
        "Semi-Major Axis(m)": 7083131.272910544,
        "Time(s)": 135
    },
    {
        "Altitude(m)": 707210.7932785247,
        "Argument of Periapsis(deg)": 0.008152928849375162,
        "Eccentricity": 0.0,
        "Inclination(deg)": 45.0,
        "Latitude(deg)": -17.172887582639344,
        "Longitude(deg)": -168.44621623098928,
        "Mean Anomaly(deg)": -24.47194492601372,
        "RAAN(deg)": 309.99230387348257,
        "Satellite Name": "Constellation 1 1384",
        "Satellite Number": 1384,
        "Semi-Major Axis(m)": 7083131.272910544,
        "Time(s)": 136
    },
    {
        "Altitude(m)": 707198.3512479942,
        "Argument of Periapsis(deg)": 0.008212876855620568,
        "Eccentricity": 0.0,
        "Inclination(deg)": 45.0,
        "Latitude(deg)": -17.131828776413695,
        "Longitude(deg)": -168.403452767074,
        "Mean Anomaly(deg)": -24.411243785763887,
        "RAAN(deg)": 309.992247284317,
        "Satellite Name": "Constellation 1 1384",
        "Satellite Number": 1384,
        "Semi-Major Axis(m)": 7083131.272910544,
        "Time(s)": 137
    },
    {
        "Altitude(m)": 707185.9202454753,
        "Argument of Periapsis(deg)": 0.008272824861865974,
        "Eccentricity": 0.0,
        "Inclination(deg)": 45.0,
        "Latitude(deg)": -17.090758856230234,
        "Longitude(deg)": -168.36070976070087,
        "Mean Anomaly(deg)": -24.350542645513947,
        "RAAN(deg)": 309.9921906951514,
        "Satellite Name": "Constellation 1 1384",
        "Satellite Number": 1384,
        "Semi-Major Axis(m)": 7083131.272910544,
        "Time(s)": 138
    },
    {
        "Altitude(m)": 707173.500309852,
        "Argument of Periapsis(deg)": 0.00833277286811138,
        "Eccentricity": 0.0,
        "Inclination(deg)": 45.0,
        "Latitude(deg)": -17.049677854618288,
        "Longitude(deg)": -168.31798715613908,
        "Mean Anomaly(deg)": -24.28984150526406,
        "RAAN(deg)": 309.9921341059858,
        "Satellite Name": "Constellation 1 1384",
        "Satellite Number": 1384,
        "Semi-Major Axis(m)": 7083131.272910544,
        "Time(s)": 139
    },
    {
        "Altitude(m)": 707161.0914799365,
        "Argument of Periapsis(deg)": 0.008392720874356788,
        "Eccentricity": 0.0,
        "Inclination(deg)": 45.0,
        "Latitude(deg)": -17.008585804067344,
        "Longitude(deg)": -168.27528489768773,
        "Mean Anomaly(deg)": -24.22914036501412,
        "RAAN(deg)": 309.9920775168203,
        "Satellite Name": "Constellation 1 1384",
        "Satellite Number": 1384,
        "Semi-Major Axis(m)": 7083131.272910544,
        "Time(s)": 140
    },
    {
        "Altitude(m)": 707148.6937944981,
        "Argument of Periapsis(deg)": 0.008452668880602192,
        "Eccentricity": 0.0,
        "Inclination(deg)": 45.0,
        "Latitude(deg)": -16.96748273702734,
        "Longitude(deg)": -168.23260309777336,
        "Mean Anomaly(deg)": -24.168439224764285,
        "RAAN(deg)": 309.9920209276547,
        "Satellite Name": "Constellation 1 1384",
        "Satellite Number": 1384,
        "Semi-Major Axis(m)": 7083131.272910544,
        "Time(s)": 141
    },
    {
        "Altitude(m)": 707136.3072922324,
        "Argument of Periapsis(deg)": 0.008512616886847598,
        "Eccentricity": 0.0,
        "Inclination(deg)": 45.0,
        "Latitude(deg)": -16.926368685909463,
        "Longitude(deg)": -168.18994136456152,
        "Mean Anomaly(deg)": -24.1077380845143,
        "RAAN(deg)": 309.9919643384891,
        "Satellite Name": "Constellation 1 1384",
        "Satellite Number": 1384,
        "Semi-Major Axis(m)": 7083131.272910544,
        "Time(s)": 142
    },
    {
        "Altitude(m)": 707123.9320117903,
        "Argument of Periapsis(deg)": 0.008572564893093004,
        "Eccentricity": 0.0,
        "Inclination(deg)": 45.0,
        "Latitude(deg)": -16.885243683085108,
        "Longitude(deg)": -168.14729981053924,
        "Mean Anomaly(deg)": -24.047036944264516,
        "RAAN(deg)": 309.99190774932356,
        "Satellite Name": "Constellation 1 1384",
        "Satellite Number": 1384,
        "Semi-Major Axis(m)": 7083131.272910544,
        "Time(s)": 143
    },
    {
        "Altitude(m)": 707111.567991761,
        "Argument of Periapsis(deg)": 0.008632512899338408,
        "Eccentricity": 0.0,
        "Inclination(deg)": 45.0,
        "Latitude(deg)": -16.844107760886253,
        "Longitude(deg)": -168.10467838012633,
        "Mean Anomaly(deg)": -23.98633580401458,
        "RAAN(deg)": 309.991851160158,
        "Satellite Name": "Constellation 1 1384",
        "Satellite Number": 1384,
        "Semi-Major Axis(m)": 7083131.272910544,
        "Time(s)": 144
    },
    {
        "Altitude(m)": 707099.2152706682,
        "Argument of Periapsis(deg)": 0.008692460905583814,
        "Eccentricity": 0.0,
        "Inclination(deg)": 45.0,
        "Latitude(deg)": -16.802960951606284,
        "Longitude(deg)": -168.06207701777325,
        "Mean Anomaly(deg)": -23.92563466376464,
        "RAAN(deg)": 309.99179457099245,
        "Satellite Name": "Constellation 1 1384",
        "Satellite Number": 1384,
        "Semi-Major Axis(m)": 7083131.272910544,
        "Time(s)": 145
    },
    {
        "Altitude(m)": 707086.8738869864,
        "Argument of Periapsis(deg)": 0.00875240891182922,
        "Eccentricity": 0.0,
        "Inclination(deg)": 45.0,
        "Latitude(deg)": -16.761803287499568,
        "Longitude(deg)": -168.01949566796054,
        "Mean Anomaly(deg)": -23.864933523514754,
        "RAAN(deg)": 309.9917379818269,
        "Satellite Name": "Constellation 1 1384",
        "Satellite Number": 1384,
        "Semi-Major Axis(m)": 7083131.272910544,
        "Time(s)": 146
    },
    {
        "Altitude(m)": 707074.5438791306,
        "Argument of Periapsis(deg)": 0.008812356918074627,
        "Eccentricity": 0.0,
        "Inclination(deg)": 45.0,
        "Latitude(deg)": -16.72063480078146,
        "Longitude(deg)": -167.97693427519894,
        "Mean Anomaly(deg)": -23.804232383264864,
        "RAAN(deg)": 309.99168139266123,
        "Satellite Name": "Constellation 1 1384",
        "Satellite Number": 1384,
        "Semi-Major Axis(m)": 7083131.272910544,
        "Time(s)": 147
    },
    {
        "Altitude(m)": 707062.225285449,
        "Argument of Periapsis(deg)": 0.008872304924320031,
        "Eccentricity": 0.0,
        "Inclination(deg)": 45.0,
        "Latitude(deg)": -16.679455523628455,
        "Longitude(deg)": -167.93439295212636,
        "Mean Anomaly(deg)": -23.743531243014928,
        "RAAN(deg)": 309.9916248034957,
        "Satellite Name": "Constellation 1 1384",
        "Satellite Number": 1384,
        "Semi-Major Axis(m)": 7083131.272910544,
        "Time(s)": 148
    },
    {
        "Altitude(m)": 707049.9181442392,
        "Argument of Periapsis(deg)": 0.008932252930565437,
        "Eccentricity": 0.0,
        "Inclination(deg)": 45.0,
        "Latitude(deg)": -16.638265488179343,
        "Longitude(deg)": -167.89187130711997,
        "Mean Anomaly(deg)": -23.682830102764992,
        "RAAN(deg)": 309.99156821433013,
        "Satellite Name": "Constellation 1 1384",
        "Satellite Number": 1384,
        "Semi-Major Axis(m)": 7083131.272910544,
        "Time(s)": 149
    },
    {
        "Altitude(m)": 707037.6224937348,
        "Argument of Periapsis(deg)": 0.008992200936810843,
        "Eccentricity": 0.0,
        "Inclination(deg)": 45.0,
        "Latitude(deg)": -16.59706472653362,
        "Longitude(deg)": -167.84936945287836,
        "Mean Anomaly(deg)": -23.62212896251521,
        "RAAN(deg)": 309.9915116251646,
        "Satellite Name": "Constellation 1 1384",
        "Satellite Number": 1384,
        "Semi-Major Axis(m)": 7083131.272910544,
        "Time(s)": 150
    },
    {
        "Altitude(m)": 707025.3383721081,
        "Argument of Periapsis(deg)": 0.009052148943056249,
        "Eccentricity": 0.0,
        "Inclination(deg)": 45.0,
        "Latitude(deg)": -16.555853270752344,
        "Longitude(deg)": -167.8068873340329,
        "Mean Anomaly(deg)": -23.56142782226527,
        "RAAN(deg)": 309.991455035999,
        "Satellite Name": "Constellation 1 1384",
        "Satellite Number": 1384,
        "Semi-Major Axis(m)": 7083131.272910544,
        "Time(s)": 151
    }
]